start=new Date('2021-10-14T00:00:00.000Z').valueOf();
sats=[{"GP_ID":"187099865","TLE_LINE2":"2 44238  52.9938 167.1631 0001697  91.8851 268.2336 15.17550422130667","SITE":"AFETR","INCLINATION":"52.9938","EPHEMERIS_TYPE":"0","PERIAPSIS":"512.079","ECCENTRICITY":"0.00016970","PERIOD":"94.890","REV_AT_EPOCH":"13066","OBJECT_NAME":"STARLINK-24","TIME_SYSTEM":"UTC","NORAD_CAT_ID":"44238","FILE":"3161149","COUNTRY_CODE":"US","CLASSIFICATION_TYPE":"U","RCS_SIZE":"LARGE","DECAY_DATE":null,"OBJECT_ID":"2019-029D","ELEMENT_SET_NO":"999","SEMIMAJOR_AXIS":"6891.384","CENTER_NAME":"EARTH","ARG_OF_PERICENTER":"91.8851","MEAN_ELEMENT_THEORY":"SGP4","LAUNCH_DATE":"2019-05-24","MEAN_ANOMALY":"268.2336","TLE_LINE1":"1 44238U 19029D   21286.94065946  .00010804  00000-0  54637-3 0  9995","MEAN_MOTION":"15.17550422","BSTAR":"0.00054637000000","MEAN_MOTION_DOT":"0.00010804","EPOCH":"2021-10-13T22:34:32.977344","APOAPSIS":"514.418","REF_FRAME":"TEME","OBJECT_TYPE":"PAYLOAD","RA_OF_ASC_NODE":"167.1631","MEAN_MOTION_DDOT":"0.0000000000000"},{"TLE_LINE2":"2 44249  52.9886 137.2637 0007177  90.6755 269.5063 15.23092178131774","SITE":"AFETR","GP_ID":"187100112","INCLINATION":"52.9886","EPHEMERIS_TYPE":"0","REV_AT_EPOCH":"13177","OBJECT_NAME":"STARLINK-61","TIME_SYSTEM":"UTC","PERIAPSIS":"491.588","ECCENTRICITY":"0.00071770","PERIOD":"94.545","CLASSIFICATION_TYPE":"U","RCS_SIZE":"LARGE","NORAD_CAT_ID":"44249","FILE":"3161149","COUNTRY_CODE":"US","DECAY_DATE":null,"OBJECT_ID":"2019-029Q","SEMIMAJOR_AXIS":"6874.657","ARG_OF_PERICENTER":"90.6755","CENTER_NAME":"EARTH","MEAN_ELEMENT_THEORY":"SGP4","ELEMENT_SET_NO":"999","MEAN_MOTION":"15.23092178","LAUNCH_DATE":"2019-05-24","TLE_LINE1":"1 44249U 19029Q   21286.91183762  .00009138  00000-0  39594-3 0  9994","MEAN_ANOMALY":"269.5063","APOAPSIS":"501.456","REF_FRAME":"TEME","OBJECT_TYPE":"PAYLOAD","RA_OF_ASC_NODE":"137.2637","MEAN_MOTION_DDOT":"0.0000000000000","BSTAR":"0.00039594000000","MEAN_MOTION_DOT":"0.00009138","EPOCH":"2021-10-13T21:53:02.770368"},{"APOAPSIS":"507.511","REF_FRAME":"TEME","OBJECT_TYPE":"PAYLOAD","RA_OF_ASC_NODE":"167.4699","MEAN_MOTION_DDOT":"0.0000000000000","BSTAR":"0.00063779000000","MEAN_MOTION_DOT":"0.00013522","EPOCH":"2021-10-13T21:15:06.007680","MEAN_MOTION":"15.19771911","LAUNCH_DATE":"2019-05-24","TLE_LINE1":"1 44252U 19029T   21286.88548620  .00013522  00000-0  63779-3 0  9996","MEAN_ANOMALY":"258.2436","CENTER_NAME":"EARTH","SEMIMAJOR_AXIS":"6884.666","ARG_OF_PERICENTER":"101.8718","MEAN_ELEMENT_THEORY":"SGP4","ELEMENT_SET_NO":"999","DECAY_DATE":null,"OBJECT_ID":"2019-029T","CLASSIFICATION_TYPE":"U","RCS_SIZE":"LARGE","NORAD_CAT_ID":"44252","FILE":"3161149","COUNTRY_CODE":"US","REV_AT_EPOCH":"13129","TIME_SYSTEM":"UTC","OBJECT_NAME":"STARLINK-71","PERIAPSIS":"505.552","ECCENTRICITY":"0.00014230","PERIOD":"94.751","INCLINATION":"52.9988","EPHEMERIS_TYPE":"0","TLE_LINE2":"2 44252  52.9988 167.4699 0001423 101.8718 258.2436 15.19771911131296","SITE":"AFETR","GP_ID":"187098364"},{"GP_ID":"187098614","SITE":"AFETR","TLE_LINE2":"2 44257  52.9972  34.0232 0003721 347.5576  12.5340 15.53059955133326","EPHEMERIS_TYPE":"0","INCLINATION":"52.9972","PERIOD":"92.720","ECCENTRICITY":"0.00037210","PERIAPSIS":"405.275","TIME_SYSTEM":"UTC","OBJECT_NAME":"STARLINK-43","REV_AT_EPOCH":"13332","COUNTRY_CODE":"US","FILE":"3161149","NORAD_CAT_ID":"44257","RCS_SIZE":"LARGE","CLASSIFICATION_TYPE":"U","OBJECT_ID":"2019-029Y","DECAY_DATE":null,"ELEMENT_SET_NO":"999","MEAN_ELEMENT_THEORY":"SGP4","SEMIMAJOR_AXIS":"6785.935","ARG_OF_PERICENTER":"347.5576","CENTER_NAME":"EARTH","TLE_LINE1":"1 44257U 19029Y   21286.66459321  .00086322  00000-0  13497-2 0  9995","MEAN_ANOMALY":"12.5340","LAUNCH_DATE":"2019-05-24","MEAN_MOTION":"15.53059955","EPOCH":"2021-10-13T15:57:00.853344","MEAN_MOTION_DOT":"0.00086322","BSTAR":"0.00134970000000","MEAN_MOTION_DDOT":"0.0000000000000","RA_OF_ASC_NODE":"34.0232","OBJECT_TYPE":"PAYLOAD","REF_FRAME":"TEME","APOAPSIS":"410.325"},{"GP_ID":"187099366","SITE":"AFETR","TLE_LINE2":"2 44282  53.0196  84.2272 0002479 299.7659  60.3096 15.35526557131980","EPHEMERIS_TYPE":"0","INCLINATION":"53.0196","ECCENTRICITY":"0.00024790","PERIAPSIS":"457.664","PERIOD":"93.779","TIME_SYSTEM":"UTC","OBJECT_NAME":"STARLINK-80","REV_AT_EPOCH":"13198","FILE":"3161149","COUNTRY_CODE":"US","NORAD_CAT_ID":"44282","CLASSIFICATION_TYPE":"U","RCS_SIZE":"LARGE","OBJECT_ID":"2019-029AZ","DECAY_DATE":null,"ELEMENT_SET_NO":"999","CENTER_NAME":"EARTH","SEMIMAJOR_AXIS":"6837.494","ARG_OF_PERICENTER":"299.7659","MEAN_ELEMENT_THEORY":"SGP4","MEAN_ANOMALY":"60.3096","TLE_LINE1":"1 44282U 19029AZ  21286.77026532  .00029625  00000-0  85329-3 0  9996","LAUNCH_DATE":"2019-05-24","MEAN_MOTION":"15.35526557","EPOCH":"2021-10-13T18:29:10.923648","BSTAR":"0.00085329000000","MEAN_MOTION_DOT":"0.00029625","OBJECT_TYPE":"PAYLOAD","RA_OF_ASC_NODE":"84.2272","MEAN_MOTION_DDOT":"0.0000000000000","APOAPSIS":"461.054","REF_FRAME":"TEME"},{"INCLINATION":"53.0551","EPHEMERIS_TYPE":"0","TLE_LINE2":"2 44713  53.0551 204.1237 0001899  76.5416 283.5784 15.06400383106425","SITE":"AFETR","GP_ID":"187099906","RCS_SIZE":"LARGE","CLASSIFICATION_TYPE":"U","NORAD_CAT_ID":"44713","COUNTRY_CODE":"US","FILE":"3161149","REV_AT_EPOCH":"10642","OBJECT_NAME":"STARLINK-1007","TIME_SYSTEM":"UTC","PERIOD":"95.592","ECCENTRICITY":"0.00018990","PERIAPSIS":"545.897","MEAN_ELEMENT_THEORY":"SGP4","SEMIMAJOR_AXIS":"6925.347","ARG_OF_PERICENTER":"76.5416","CENTER_NAME":"EARTH","ELEMENT_SET_NO":"999","DECAY_DATE":null,"OBJECT_ID":"2019-074A","REF_FRAME":"TEME","APOAPSIS":"548.528","MEAN_MOTION_DDOT":"0.0000000000000","OBJECT_TYPE":"PAYLOAD","RA_OF_ASC_NODE":"204.1237","MEAN_MOTION_DOT":"-0.00002051","BSTAR":"-0.00011879000000","EPOCH":"2021-10-13T22:35:46.093344","MEAN_MOTION":"15.06400383","LAUNCH_DATE":"2019-11-11","TLE_LINE1":"1 44713U 19074A   21286.94150571 -.00002051  00000-0 -11879-3 0  9990","MEAN_ANOMALY":"283.5784"},{"CENTER_NAME":"EARTH","SEMIMAJOR_AXIS":"6925.360","ARG_OF_PERICENTER":"78.5004","MEAN_ELEMENT_THEORY":"SGP4","ELEMENT_SET_NO":"999","OBJECT_ID":"2019-074B","DECAY_DATE":null,"OBJECT_TYPE":"PAYLOAD","RA_OF_ASC_NODE":"204.1787","MEAN_MOTION_DDOT":"0.0000000000000","APOAPSIS":"548.243","REF_FRAME":"TEME","EPOCH":"2021-10-13T22:05:16.714176","BSTAR":"0.00004854500000","MEAN_MOTION_DOT":"0.00000442","MEAN_MOTION":"15.06396426","MEAN_ANOMALY":"281.6150","TLE_LINE1":"1 44714U 19074B   21286.92033234  .00000442  00000-0  48545-4 0  9996","LAUNCH_DATE":"2019-11-11","EPHEMERIS_TYPE":"0","INCLINATION":"53.0547","SITE":"AFETR","TLE_LINE2":"2 44714  53.0547 204.1787 0001470  78.5004 281.6150 15.06396426106429","GP_ID":"187100153","CLASSIFICATION_TYPE":"U","RCS_SIZE":"LARGE","FILE":"3161149","COUNTRY_CODE":"US","NORAD_CAT_ID":"44714","OBJECT_NAME":"STARLINK-1008","TIME_SYSTEM":"UTC","REV_AT_EPOCH":"10642","ECCENTRICITY":"0.00014700","PERIAPSIS":"546.206","PERIOD":"95.592"},{"DECAY_DATE":null,"OBJECT_ID":"2019-074C","ELEMENT_SET_NO":"999","MEAN_ELEMENT_THEORY":"SGP4","SEMIMAJOR_AXIS":"6925.331","CENTER_NAME":"EARTH","ARG_OF_PERICENTER":"64.1923","LAUNCH_DATE":"2019-11-11","MEAN_ANOMALY":"295.9256","TLE_LINE1":"1 44715U 19074C   21286.51119338  .00002072  00000-0  15793-3 0  9991","MEAN_MOTION":"15.06405683","MEAN_MOTION_DOT":"0.00002072","BSTAR":"0.00015793000000","EPOCH":"2021-10-13T12:16:07.108032","REF_FRAME":"TEME","APOAPSIS":"548.477","MEAN_MOTION_DDOT":"0.0000000000000","RA_OF_ASC_NODE":"206.0144","OBJECT_TYPE":"PAYLOAD","GP_ID":"187065764","TLE_LINE2":"2 44715  53.0536 206.0144 0001850  64.1923 295.9256 15.06405683106352","SITE":"AFETR","INCLINATION":"53.0536","EPHEMERIS_TYPE":"0","PERIOD":"95.592","ECCENTRICITY":"0.00018500","PERIAPSIS":"545.915","REV_AT_EPOCH":"10635","TIME_SYSTEM":"UTC","OBJECT_NAME":"STARLINK-1009","NORAD_CAT_ID":"44715","COUNTRY_CODE":"US","FILE":"3160689","RCS_SIZE":"LARGE","CLASSIFICATION_TYPE":"U"},{"MEAN_MOTION":"15.06399077","LAUNCH_DATE":"2019-11-11","TLE_LINE1":"1 44716U 19074D   21286.92770135 -.00000024  00000-0  17295-4 0  9991","MEAN_ANOMALY":"292.0311","REF_FRAME":"TEME","APOAPSIS":"548.329","MEAN_MOTION_DDOT":"0.0000000000000","OBJECT_TYPE":"PAYLOAD","RA_OF_ASC_NODE":"204.1340","MEAN_MOTION_DOT":"-0.00000024","BSTAR":"0.00001729500000","EPOCH":"2021-10-13T22:15:53.396640","DECAY_DATE":null,"OBJECT_ID":"2019-074D","MEAN_ELEMENT_THEORY":"SGP4","ARG_OF_PERICENTER":"68.0848","SEMIMAJOR_AXIS":"6925.351","CENTER_NAME":"EARTH","ELEMENT_SET_NO":"999","REV_AT_EPOCH":"10640","TIME_SYSTEM":"UTC","OBJECT_NAME":"STARLINK-1010","PERIOD":"95.592","PERIAPSIS":"546.103","ECCENTRICITY":"0.00016070","RCS_SIZE":"LARGE","CLASSIFICATION_TYPE":"U","NORAD_CAT_ID":"44716","COUNTRY_CODE":"US","FILE":"3161149","TLE_LINE2":"2 44716  53.0562 204.1340 0001607  68.0848 292.0311 15.06399077106403","SITE":"AFETR","GP_ID":"187098655","INCLINATION":"53.0562","EPHEMERIS_TYPE":"0"},{"PERIOD":"95.592","ECCENTRICITY":"0.00018280","PERIAPSIS":"545.962","REV_AT_EPOCH":"10608","TIME_SYSTEM":"UTC","OBJECT_NAME":"STARLINK-1011","NORAD_CAT_ID":"44717","COUNTRY_CODE":"US","FILE":"3160689","RCS_SIZE":"LARGE","CLASSIFICATION_TYPE":"U","GP_ID":"187066766","TLE_LINE2":"2 44717  53.0538 225.9347 0001828  71.9012 288.2176 15.06395150106084","SITE":"AFETR","INCLINATION":"53.0538","EPHEMERIS_TYPE":"0","LAUNCH_DATE":"2019-11-11","MEAN_ANOMALY":"288.2176","TLE_LINE1":"1 44717U 19074E   21286.52778329  .00001244  00000-0  10239-3 0  9995","MEAN_MOTION":"15.06395150","MEAN_MOTION_DOT":"0.00001244","BSTAR":"0.00010239000000","EPOCH":"2021-10-13T12:40:00.476256","REF_FRAME":"TEME","APOAPSIS":"548.494","MEAN_MOTION_DDOT":"0.0000000000000","OBJECT_TYPE":"PAYLOAD","RA_OF_ASC_NODE":"225.9347","DECAY_DATE":null,"OBJECT_ID":"2019-074E","ELEMENT_SET_NO":"999","MEAN_ELEMENT_THEORY":"SGP4","CENTER_NAME":"EARTH","SEMIMAJOR_AXIS":"6925.363","ARG_OF_PERICENTER":"71.9012"}];
